1  1570U 65070A   21190.84317463 -.00000102  00000-0 -30406-4 0  9992
2  1570  56.0572 323.3659 0103222  38.0599 124.2951 12.52765524555801
1 01570U 65070A   21191.54141365 -.00000099  00000-0 -14151-4 0  9990
2 01570  56.0572 321.4716 0103247  38.9945  33.3333 12.52765551555450
1 01570U 65070A   21191.79833667 -.00000098  00000-0 -63360-5 0  9996
2 01570  56.0574 320.7745 0103264  39.3474 112.0398 12.52765539555482
1 01570U 65070A   21192.58506175 -.00000094  00000-0  17482-4 0  9993
2 01570  56.0573 318.6401 0103290  40.3980  60.1496 12.52765534555587
1 01570U 65070A   21192.83955338 -.00000091  00000-0  32847-4 0  9999
2 01570  56.0573 317.9497 0103299  40.7379 127.9002 12.52765536555610
1 01570U 65070A   21193.54052042 -.00000100  00000-0 -17958-4 0  9996
2 01570  56.0571 316.0480 0103312  41.6660  49.2518 12.52765529555709
1  1570U 65070A   21193.54052042 -.00000100  00000-0 -17958-4 0  9996
2  1570  56.0571 316.0480 0103312  41.6660  49.2518 12.52765529556148
1 01570U 65070A   21193.79416653 -.00000099  00000-0 -14112-4 0  9991
2 01570  56.0570 315.3598 0103320  42.0043 113.1896 12.52765526555739
1 01570U 65070A   21194.49375216 -.00000092  00000-0  31386-4 0  9992
2 01570  56.0572 313.4617 0103346  42.9473  28.2938 12.52765510555822
1 01570U 65070A   21194.83478116 -.00000103  00000-0 -41938-4 0  9991
2 01570  56.0570 312.5366 0103343  43.3928 126.3360 12.52765485555862
1 01570U 65070A   21195.53656562 -.00000099  00000-0 -13993-4 0  9996
2 01570  56.0569 310.6326 0103370  44.3324  51.3636 12.52765509555956
1 01570U 65070A   21195.79163425 -.00000098  00000-0 -70250-5 0  9994
2 01570  56.0569 309.9406 0103372  44.6725 121.7171 12.52765509555985
1  1570U 65070A   21195.79163425 -.00000098  00000-0 -70250-5 0  9994
2  1570  56.0569 309.9406 0103372  44.6725 121.7171 12.52765509556425
1 01570U 65070A   21196.32024606 -.00000089  00000-0  46233-4 0  9993
2 01570  56.0570 308.5063 0103401  45.3861 345.7349 12.52765536556057
1 01570U 65070A   21197.53200914 -.00000093  00000-0  24248-4 0  9992
2 01570  56.0569 305.2189 0103439  47.0033  50.7566 12.52765542556207
1 01570U 65070A   21197.70195828 -.00000094  00000-0  18964-4 0  9997
2 01570  56.0569 304.7578 0103446  47.2304  97.2227 12.52765532556225
1  1570U 65070A   21198.23222858 -.00000094  00000-0  15539-4 0  9995
2  1570  56.0568 303.3191 0103455  47.9364 328.7305 12.52765555556733
1 01570U 65070A   21198.56772382 -.00000098  00000-0 -80927-5 0  9992
2 01570  56.0568 302.4090 0103478  48.3872  41.8027 12.52765534556332
1 01570U 65070A   21198.74157569 -.00000096  00000-0  73840-5 0  9999
2 01570  56.0569 301.9373 0103494  48.6230 105.8665 12.52765554556353
1 01570U 65070A   21199.52832914 -.00000098  00000-0 -99708-5 0  9994
2 01570  56.0568 299.8028 0103517  49.6727  54.1057 12.52765559556459
1 01570U 65070A   21199.78326461 -.00000101  00000-0 -28486-4 0  9996
2 01570  56.0568 299.1112 0103520  50.0105 123.8605 12.52765533556484
1  1570U 65070A   21200.56298804 -.00000101  00000-0 -23691-4 0  9997
2  1570  56.0567 296.9958 0103542  51.0527  40.3925 12.52765539557024
1 01570U 65070A   21200.73741806 -.00000089  00000-0  46933-4 0  9999
2 01570  56.0565 296.5224 0103532  51.2810 107.0715 12.52765555556609
1 01570U 65070A   21201.60563524 -.00000097  00000-0 -72459-6 0  9999
2 01570  56.0564 294.1671 0103560  52.4426  62.7073 12.52765541556716
1 01570U 65070A   21202.55950703 -.00000096  00000-0  61094-5 0  9993
2 01570  56.0562 291.5792 0103579  53.7041  44.6566 12.52765509556839
1  1570U 65070A   21202.97486708 -.00000088  00000-0  55663-4 0  9993
2  1570  56.0561 290.4521 0103580  54.2524 117.9265 12.52765589557323
1 01570U 65070A   21203.51538858 -.00000084  00000-0  78927-4 0  9992
2 01570  56.0560 288.9858 0103604  54.9779  35.6608 12.52765562556959
1 01570U 65070A   21203.68904042 -.00000083  00000-0  85980-4 0  9998
2 01570  56.0560 288.5147 0103608  55.2089  98.8270 12.52765560556974
1 01570U 65070A   21204.55489631 -.00000076  00000-0  12701-3 0  9999
2 01570  56.0558 286.1655 0103621  56.3583  43.8220 12.52765581557086
1 01570U 65070A   21204.96940873 -.00000074  00000-0  13897-3 0  9999
2 01570  56.0557 285.0409 0103632  56.9084 113.2660 12.52765599557139
1 01570U 65070A   21205.51055228 -.00000074  00000-0  14212-3 0  9994
2 01570  56.0557 283.5727 0103647  57.6315  33.8093 12.52765594557206
1  1570U 65070A   21205.51055228 -.00000074  00000-0  14212-3 0  9994
2  1570  56.0557 283.5727 0103647  57.6315  33.8093 12.52765594557644
1 01570U 65070A   21206.45087738 -.00000070  00000-0  16787-3 0  9994
2 01570  56.0555 281.0215 0103667  58.8835 314.6559 12.52765656557320
1 01570U 65070A   21206.96444053 -.00000070  00000-0  16893-3 0  9995
2 01570  56.0554 279.6282 0103681  59.5641 110.8182 12.52765679557384
1 01570U 65070A   21207.59696588 -.00000071  00000-0  15944-3 0  9994
2 01570  56.0552 277.9120 0103694  60.4070  83.4938 12.52765694557465
1  1570U 65070A   21207.59696588 -.00000071  00000-0  15944-3 0  9994
2  1570  56.0552 277.9120 0103694  60.4070  83.4938 12.52765694557904
1 01570U 65070A   21208.55384094 -.00000080  00000-0  10165-3 0  9997
2 01570  56.0550 275.3160 0103714  61.6805  78.9810 12.52765688557585
1 01570U 65070A   21208.63652457 -.00000081  00000-0  97718-4 0  9998
2 01570  56.0550 275.0917 0103716  61.7906  91.8824 12.52765690557590
1 01570U 65070A   21209.59257778 -.00000089  00000-0  48396-4 0  9997
2 01570  56.0550 272.4975 0103721  63.0588  83.6673 12.52765645557717
1  1570U 65070A   21209.67879730 -.00000089  00000-0  48029-4 0  9997
2  1570  56.0549 272.2636 0103722  63.1733 112.5159 12.52765645558162
1 01570U 65070A   21209.91680530 -.00000089  00000-0  46311-4 0  9994
2 01570  56.0549 271.6179 0103727  63.4893 105.9279 12.52765647557757
1 01570U 65070A   21210.54905385 -.00000096  00000-0  60945-5 0  9991
2 01570  56.0547 269.9027 0103753  64.3365  77.3510 12.52765695557832
1 01570U 65070A   21210.63215519 -.00000096  00000-0  37477-5 0  9998
2 01570  56.0547 269.6773 0103755  64.4469  92.1365 12.52765697557841
1 01570U 65070A   21211.39867509 -.00000083  00000-0  88101-4 0  9999
2 01570  56.0546 267.5973 0103753  65.4642 309.1285 12.52765721557942
1 01570U 65070A   21211.91228537 -.00000099  00000-0 -15566-4 0  9992
2 01570  56.0544 266.2041 0103772  66.1455 105.5034 12.52765714558003
1  1570U 65070A   21211.91228537 -.00000099  00000-0 -15566-4 0  9992
2  1570  56.0544 266.2041 0103772  66.1455 105.5034 12.52765714558441
1 01570U 65070A   21212.62823550 -.00000095  00000-0  91263-5 0  9991
2 01570  56.0542 264.2616 0103782  67.0979  94.4247 12.52765728558095
1 01570U 65070A   21212.86960148 -.00000094  00000-0  14687-4 0  9995
2 01570  56.0542 263.6067 0103786  67.4182 102.9816 12.52765744558121
1 01570U 65070A   21213.58399337 -.00000089  00000-0  49129-4 0  9994
2 01570  56.0541 261.6685 0103796  68.3688  84.8749 12.52765758558214
1 01570U 65070A   21213.90694993 -.00000086  00000-0  68824-4 0  9996
2 01570  56.0540 260.7922 0103793  68.7923 101.4089 12.52765775558256
1  1570U 65070A   21214.19753074 -.00000083  00000-0  88609-4 0  9994
2  1570  56.0540 260.0037 0103795  69.1789 331.9229 12.52765799558738
1 01570U 65070A   21214.62583860 -.00000078  00000-0  11407-3 0  9991
2 01570  56.0539 258.8417 0103800  69.7479 103.5835 12.52765788558343
1 01570U 65070A   21214.86465782 -.00000078  00000-0  11392-3 0  9992
2 01570  56.0539 258.1937 0103802  70.0642 100.6550 12.52765789558378
1 01570U 65070A   21215.49658365 -.00000079  00000-0  11009-3 0  9999
2 01570  56.0536 256.4791 0103817  70.9077  70.6253 12.52765745558458
1 01570U 65070A   21216.11031559 -.00000075  00000-0  13356-3 0  9992
2 01570  56.0535 254.8138 0103823  71.7223 318.5465 12.52765769558537
1  1570U 65070A   21216.85954509 -.00000074  00000-0  14290-3 0  9999
2  1570  56.0534 252.7809 0103835  72.7184  97.5578 12.52765770559068
1 01570U 65070A   21217.38348873 -.00000093  00000-0  25744-4 0  9997
2 01570  56.0536 251.3591 0103830  73.4127 300.5374 12.52765774558696
1 01570U 65070A   21217.81731715 -.00000091  00000-0  36056-4 0  9992
2 01570  56.0535 250.1820 0103840  73.9907  97.0949 12.52765799558748
1 01570U 65070A   21218.53152082 -.00000072  00000-0  15244-3 0  9990
2 01570  56.0532 248.2443 0103863  74.9448  78.1350 12.52765832558834
1 01570U 65070A   21218.85463161 -.00000075  00000-0  13732-3 0  9991
2 01570  56.0532 247.3676 0103863  75.3712  95.3621 12.52765838558873
1  1570U 65070A   21219.23190882 -.00000075  00000-0  13513-3 0  9998
2  1570  56.0531 246.3439 0103867  75.8740 356.8746 12.52765866559367
1 01570U 65070A   21219.57441769 -.00000077  00000-0  12533-3 0  9991
2 01570  56.0531 245.4147 0103873  76.3283 101.5845 12.52765867558969
1 01570U 65070A   21219.81214693 -.00000080  00000-0  10654-3 0  9998
2 01570  56.0531 244.7696 0103875  76.6429  93.7408 12.52765874558995
1 01570U 65070A   21220.52735368 -.00000084  00000-0  80326-4 0  9993
2 01570  56.0530 242.8290 0103884  77.5966  79.3080 12.52765891559085
1 01570U 65070A   21220.84973302 -.00000089  00000-0  50241-4 0  9998
2 01570  56.0529 241.9543 0103884  78.0215  93.2369 12.52765887559122
1  1570U 65070A   21221.39601034 -.00000096  00000-0  47395-5 0  9994
2  1570  56.0529 240.4721 0103888  78.7467  36.9392 12.52765875559637
1 01570U 65070A   21221.48322118 -.00000097  00000-0  19991-5 0  9999
2 01570  56.0529 240.2355 0103890  78.8624  70.2588 12.52765876559209
1 01570U 65070A   21221.80753197 -.00000100  00000-0 -21405-4 0  9998
2 01570  56.0529 239.3555 0103892  79.2910  92.8975 12.52765878559241
1 01570U 65070A   21222.43955642 -.00000092  00000-0  33000-4 0  9990
2 01570  56.0530 237.6405 0103889  80.1280  63.3193 12.52765830559327
1 01570U 65070A   21222.97036314 -.00000107  00000-0 -60500-4 0  9998
2 01570  56.0527 236.2005 0103901  80.8325 297.2503 12.52765875559395
1 01570U 65070A   21223.39666045 -.00000109  00000-0 -73980-4 0  9993
2 01570  56.0527 235.0438 0103904  81.4026  59.8404 12.52765868559440
